{
  "type": "FeatureCollection",
  "features": [
    {
      "type": "Feature",
      "properties": {
        "norad_id": 66538,
        "name": "STARLINK-35577",
        "group": "last-30-days",
        "lat": -26.183871940742897,
        "lon": 63.551086667952575,
        "alt_km": 363.75740383606444,
        "timestamp": "2025-12-05T16:54:13.486203+00:00",
        "meta_object_name": "STARLINK-35577",
        "meta_object_id": "2025-265Y",
        "meta_epoch": "2025-12-05T06:00:02.000160",
        "meta_mean_motion": 15.70700409,
        "meta_eccentricity": 0.00014039,
        "meta_inclination": 43.0004,
        "meta_ra_of_asc_node": 98.1346,
        "meta_arg_of_pericenter": 268.367,
        "meta_mean_anomaly": 0.9118,
        "meta_ephemeris_type": 0,
        "meta_classification_type": "U",
        "meta_norad_cat_id": 66538,
        "meta_element_set_no": 999,
        "meta_rev_at_epoch": 379,
        "meta_bstar": -0.016622342,
        "meta_mean_motion_dot": -0.01884545,
        "meta_mean_motion_ddot": 0,
        "tle_line1": "1 66538U 25265Y   25339.25002315 -.01884545  00000+0 -16622-1 0  9992",
        "tle_line2": "2 66538  43.0004  98.1346 0001403 268.3670   0.9118 15.70700409  3793"
      },
      "geometry": {
        "type": "Point",
        "coordinates": [
          63.551086667952575,
          -26.183871940742897
        ]
      }
    },
    {
      "type": "Feature",
      "properties": {
        "norad_id": 66539,
        "name": "STARLINK-35697",
        "group": "last-30-days",
        "lat": -25.06496698674547,
        "lon": 65.26879131388145,
        "alt_km": 363.73131844081126,
        "timestamp": "2025-12-05T16:54:13.486211+00:00",
        "meta_object_name": "STARLINK-35697",
        "meta_object_id": "2025-265Z",
        "meta_epoch": "2025-12-05T06:00:02.000160",
        "meta_mean_motion": 15.70702166,
        "meta_eccentricity": 0.00013362,
        "meta_inclination": 43.0004,
        "meta_ra_of_asc_node": 98.1293,
        "meta_arg_of_pericenter": 268.8069,
        "meta_mean_anomaly": 2.3885,
        "meta_ephemeris_type": 0,
        "meta_classification_type": "U",
        "meta_norad_cat_id": 66539,
        "meta_element_set_no": 999,
        "meta_rev_at_epoch": 379,
        "meta_bstar": -0.016653094,
        "meta_mean_motion_dot": -0.01887719,
        "meta_mean_motion_ddot": 0,
        "tle_line1": "1 66539U 25265Z   25339.25002315 -.01887719  00000+0 -16653-1 0  9993",
        "tle_line2": "2 66539  43.0004  98.1293 0001336 268.8069   2.3885 15.70702166  3796"
      },
      "geometry": {
        "type": "Point",
        "coordinates": [
          65.26879131388145,
          -25.06496698674547
        ]
      }
    },
    {
      "type": "Feature",
      "properties": {
        "norad_id": 66540,
        "name": "STARLINK-35818",
        "group": "last-30-days",
        "lat": -23.925112958845357,
        "lon": 66.95777904836227,
        "alt_km": 363.5709234101323,
        "timestamp": "2025-12-05T16:54:13.486222+00:00",
        "meta_object_name": "STARLINK-35818",
        "meta_object_id": "2025-265AA",
        "meta_epoch": "2025-12-05T06:00:02.000160",
        "meta_mean_motion": 15.70703232,
        "meta_eccentricity": 0.00014901,
        "meta_inclination": 43.0001,
        "meta_ra_of_asc_node": 98.125,
        "meta_arg_of_pericenter": 270.4346,
        "meta_mean_anomaly": 2.6754,
        "meta_ephemeris_type": 0,
        "meta_classification_type": "U",
        "meta_norad_cat_id": 66540,
        "meta_element_set_no": 999,
        "meta_rev_at_epoch": 379,
        "meta_bstar": -0.016645665,
        "meta_mean_motion_dot": -0.01887159,
        "meta_mean_motion_ddot": 0,
        "tle_line1": "1 66540U 25265AA  25339.25002315 -.01887159  00000+0 -16646-1 0  9995",
        "tle_line2": "2 66540  43.0001  98.1250 0001490 270.4346   2.6754 15.70703232  3799"
      },
      "geometry": {
        "type": "Point",
        "coordinates": [
          66.95777904836227,
          -23.925112958845357
        ]
      }
    },
    {
      "type": "Feature",
      "properties": {
        "norad_id": 66541,
        "name": "STARLINK-35796",
        "group": "last-30-days",
        "lat": -22.766967517272022,
        "lon": 68.61696542123488,
        "alt_km": 363.51928711687015,
        "timestamp": "2025-12-05T16:54:13.486231+00:00",
        "meta_object_name": "STARLINK-35796",
        "meta_object_id": "2025-265AB",
        "meta_epoch": "2025-12-05T06:00:02.000160",
        "meta_mean_motion": 15.70703047,
        "meta_eccentricity": 0.00015521,
        "meta_inclination": 43.0003,
        "meta_ra_of_asc_node": 98.1201,
        "meta_arg_of_pericenter": 269.0903,
        "meta_mean_anomaly": 5.9389,
        "meta_ephemeris_type": 0,
        "meta_classification_type": "U",
        "meta_norad_cat_id": 66541,
        "meta_element_set_no": 999,
        "meta_rev_at_epoch": 379,
        "meta_bstar": -0.016663124,
        "meta_mean_motion_dot": -0.0188895,
        "meta_mean_motion_ddot": 0,
        "tle_line1": "1 66541U 25265AB  25339.25002315 -.01888950  00000+0 -16663-1 0  9995",
        "tle_line2": "2 66541  43.0003  98.1201 0001552 269.0903   5.9389 15.70703047  3794"
      },
      "geometry": {
        "type": "Point",
        "coordinates": [
          68.61696542123488,
          -22.766967517272022
        ]
      }
    },
    {
      "type": "Feature",
      "properties": {
        "norad_id": 66542,
        "name": "STARLINK-35833",
        "group": "last-30-days",
        "lat": -21.591913071878803,
        "lon": 70.24786806368711,
        "alt_km": 363.55993558772025,
        "timestamp": "2025-12-05T16:54:13.486240+00:00",
        "meta_object_name": "STARLINK-35833",
        "meta_object_id": "2025-265AC",
        "meta_epoch": "2025-12-05T06:00:02.000160",
        "meta_mean_motion": 15.70705812,
        "meta_eccentricity": 0.00014553,
        "meta_inclination": 43.0002,
        "meta_ra_of_asc_node": 98.1155,
        "meta_arg_of_pericenter": 266.1654,
        "meta_mean_anomaly": 10.7802,
        "meta_ephemeris_type": 0,
        "meta_classification_type": "U",
        "meta_norad_cat_id": 66542,
        "meta_element_set_no": 999,
        "meta_rev_at_epoch": 379,
        "meta_bstar": -0.016692454,
        "meta_mean_motion_dot": -0.01892028,
        "meta_mean_motion_ddot": 0,
        "tle_line1": "1 66542U 25265AC  25339.25002315 -.01892028  00000+0 -16692-1 0  9999",
        "tle_line2": "2 66542  43.0002  98.1155 0001455 266.1654  10.7802 15.70705812  3791"
      },
      "geometry": {
        "type": "Point",
        "coordinates": [
          70.24786806368711,
          -21.591913071878803
        ]
      }
    },
    {
      "type": "Feature",
      "properties": {
        "norad_id": 66543,
        "name": "STARLINK-35315",
        "group": "last-30-days",
        "lat": -20.402408611689946,
        "lon": 71.85007543342694,
        "alt_km": 363.4222793687841,
        "timestamp": "2025-12-05T16:54:13.486250+00:00",
        "meta_object_name": "STARLINK-35315",
        "meta_object_id": "2025-265AD",
        "meta_epoch": "2025-12-05T06:00:02.000160",
        "meta_mean_motion": 15.70700828,
        "meta_eccentricity": 0.00014756,
        "meta_inclination": 43.0003,
        "meta_ra_of_asc_node": 98.1102,
        "meta_arg_of_pericenter": 268.9361,
        "meta_mean_anomaly": 9.928,
        "meta_ephemeris_type": 0,
        "meta_classification_type": "U",
        "meta_norad_cat_id": 66543,
        "meta_element_set_no": 999,
        "meta_rev_at_epoch": 368,
        "meta_bstar": -0.016627482,
        "meta_mean_motion_dot": -0.01885146,
        "meta_mean_motion_ddot": 0,
        "tle_line1": "1 66543U 25265AD  25339.25002315 -.01885146  00000+0 -16627-1 0  9991",
        "tle_line2": "2 66543  43.0003  98.1102 0001475 268.9361   9.9280 15.70700828  3682"
      },
      "geometry": {
        "type": "Point",
        "coordinates": [
          71.85007543342694,
          -20.402408611689946
        ]
      }
    },
    {
      "type": "Feature",
      "properties": {
        "norad_id": 66544,
        "name": "STARLINK-35728",
        "group": "last-30-days",
        "lat": -19.197886189503624,
        "lon": 73.42877306484415,
        "alt_km": 363.3771268056098,
        "timestamp": "2025-12-05T16:54:13.486260+00:00",
        "meta_object_name": "STARLINK-35728",
        "meta_object_id": "2025-265AE",
        "meta_epoch": "2025-12-05T06:00:02.000160",
        "meta_mean_motion": 15.70702966,
        "meta_eccentricity": 0.00014458,
        "meta_inclination": 43.0002,
        "meta_ra_of_asc_node": 98.1057,
        "meta_arg_of_pericenter": 268.45,
        "meta_mean_anomaly": 12.3302,
        "meta_ephemeris_type": 0,
        "meta_classification_type": "U",
        "meta_norad_cat_id": 66544,
        "meta_element_set_no": 999,
        "meta_rev_at_epoch": 379,
        "meta_bstar": -0.01665653,
        "meta_mean_motion_dot": -0.01888202,
        "meta_mean_motion_ddot": 0,
        "tle_line1": "1 66544U 25265AE  25339.25002315 -.01888202  00000+0 -16657-1 0  9991",
        "tle_line2": "2 66544  43.0002  98.1057 0001445 268.4500  12.3302 15.70702966  3798"
      },
      "geometry": {
        "type": "Point",
        "coordinates": [
          73.42877306484415,
          -19.197886189503624
        ]
      }
    }
  ]
}